#aV2020  1  8  0  0  0.00000000     288 DD+AD WGS84 FIT  NGA
## 2087 259200.00000000   300.00000000 58856 0.0000000000000
+   32     1  2  3  4  5  6  7  8  9 10 11 12 13 14 15 16 17
+         18 19 20 21 22 23 24 25 26 27 28 29 30 31 32  0  0
+          0  0  0  0  0  0  0  0  0  0  0  0  0  0  0  0  0
+          0  0  0  0  0  0  0  0  0  0  0  0  0  0  0  0  0
+          0  0  0  0  0  0  0  0  0  0  0  0  0  0  0  0  0
++         2  2  2  2  2  2  2  2  2  2  2  2  2  2  2  2  2
++         2  2  2  2  2  2  2  2  2  2  2  2  2  2  2  0  0
++         0  0  0  0  0  0  0  0  0  0  0  0  0  0  0  0  0
++         0  0  0  0  0  0  0  0  0  0  0  0  0  0  0  0  0
++         0  0  0  0  0  0  0  0  0  0  0  0  0  0  0  0  0
%c cc cc ccc ccc cccc cccc cccc cccc ccccc ccccc ccccc ccccc
%c cc cc ccc ccc cccc cccc cccc cccc ccccc ccccc ccccc ccccc
%f  0.0000000  0.000000000  0.00000000000  0.000000000000000
%f  0.0000000  0.000000000  0.00000000000  0.000000000000000
%i    0    0    0    0      0      0      0      0         0
%i    0    0    0    0      0      0      0      0         0
/*      NGA, ST. LOUIS,MO.                                  
/*   EPHEMERIS COMPUTED FROM 2 DAYS OF DATA                 
/*   EPOCHA v5 SMOOTHER                                     
/*   G1762 IERS2010 SATAF SATAPC                            
*  2020  1  8 17 10  0.00000000
P  1 -18615.588317  -8795.628369  16755.591862   -256.033891                    
V  1 -10109.244372 -19020.345744 -20646.800820     -0.121766                    
P  2  13560.393779  22752.151888   3232.318813   -382.091418                    
V  2  -4181.431540  -1086.071262  31272.898370     -0.072300                    
P  3 -17472.706062   4020.065902  19506.297331    -68.357988                    
V  3  10631.294889 -22566.552355  14219.519120     -0.075672                    
P  4 -26527.609921   -853.894508   1284.447856    -31.484098                    
V  4   1618.108066  -2847.279805  31654.667218     -0.054198                    
P  5   7228.871961  16634.826523 -19472.000319     -5.815365                    
V  5 -12197.532392  21329.566995  13981.319364     -0.005214                    
P  6   3644.171043  22722.065751  13286.988712   -176.705676                    
V  6 -10421.688689 -13257.489046  25661.619865     -0.104203                    
P  7 -12429.530375   8835.274416 -21445.865216   -187.731695                    
V  7 -14782.049874 -23729.149056  -1663.171079     -0.083065                    
P  8 -23294.579946  -6548.963804 -11182.660857    -19.529585                    
V  8  14042.300498  -2696.001375 -27356.317202     -0.012529                    
P  9 -24231.873698   7099.350593  -8306.916362   -127.814347                    
V  9 -10609.461715  -2330.055921  29139.095299     -0.087816                    
P 10  11036.133216 -23932.880013   2114.696142   -202.234081                    
V 10   3765.786343   -963.454364 -31845.800901     -0.137165                    
P 11 -23864.938880  -7885.429335   7584.419825   -395.889628                    
V 11  -6545.384776  -9261.939723 -28701.830632      0.108646                    
P 12  15943.358852   1006.722766  20964.817195    164.497774                    
V 12 -13748.092063  23383.849020   9399.098435     -0.040872                    
P 13  16531.521444  12919.589505 -16456.534122    -21.305853                    
V 13 -20681.451026   -260.061722 -21062.977801      0.025509                    
P 14  -2575.223623 -15413.450600  21818.714444    -39.987447                    
V 14  26900.404930   1003.737934   3762.745414      0.022817                    
P 15  24207.602320   4761.516545 -10627.009566   -260.004848                    
V 15 -12474.077531   4698.353679 -26704.189372      0.026384                    
P 16  -4548.154340 -17226.005250 -19742.697187   -111.482197                    
V 16  14497.602898 -20073.441268  14754.929103     -0.039779                    
P 17  -9364.174058  13810.224604  21077.810462    195.128523                    
V 17 -25718.439360  -1226.879272 -10903.733527      0.066402                    
P 18 -19122.004040 -15422.132686   9706.805948    112.127935                    
V 18  -5268.254608 -12216.728436 -28235.608619      0.024911                    
P 19  -1059.177575  14577.238454  21885.193674   -215.228687                    
V 19 -28370.409579  -1941.901909    -68.182179      0.051842                    
P 20  14794.329526 -19987.394492  -9131.342516    527.765371                    
V 20   -838.291118  12060.511599 -28247.509745      0.000450                    
P 21   9303.545788 -12451.050251 -20773.245487    -58.702493                    
V 21  16866.156237  22666.747374  -5595.550384      0.056047                    
P 22 -15368.058739  -4646.607838  21370.758393   -781.186794                    
V 22  10373.167059 -24671.726250   2226.041774     -0.014235                    
P 23 -26749.734545   1013.168334    663.668044   -144.396206                    
V 23    249.942079  -3068.114793  31091.815810      0.024408                    
P 24  19988.407396   9708.122598  14623.122067     -7.324647                    
V 24   8863.867070  16768.260301 -22594.485892     -0.005743                    
P 25  18016.517533 -12940.940925  14181.190073    -16.402265                    
V 25  -6777.172643  17337.280188  24318.066115      0.006707                    
P 26   1479.913337 -23268.316182 -12545.161022    123.079590                    
V 26   9557.302452 -13122.619576  25724.372172      0.080235                    
P 27 -14084.464974 -12353.019465 -19070.576414   -175.158024                    
V 27  23765.438154  -1782.901340 -16183.479681     -0.113930                    
P 28 -11923.009677  23506.772767   4409.395588    746.379453                    
V 28  -4320.785244   2924.904486 -31441.324891     -0.020506                    
P 29  24763.382992  -4738.489313  -8414.723625     -2.402020                    
V 29  10541.998119   2216.209615  29859.923029     -0.096961                    
P 30  -4169.638058  19071.118755 -17893.635507   -124.630861                    
V 30 -13147.410097 -18885.214455 -17232.726241     -0.087800                    
P 31  -4841.450792 -23464.072224  10916.060667    -15.217577                    
V 31   9574.311895  10707.134633  27636.107963     -0.025276                    
P 32   8144.734260 -14819.085354  20511.296680    179.262637                    
V 32  25975.800675    -27.195678 -10499.178066      0.107692                    
EOF
